#aV2007  5 20  0  0   .00000000      96 DD+AD WGS84 FIT  NGA
## 1428       .00000000   900.00000000 54240  .0000000000000
+   30     1  2  3  4  5  6  7  8  9 10 11 12 13 14 16 17 18
+         19 20 21 22 23 24 25 26 27 28 29 30 31  0  0  0  0
+          0  0  0  0  0  0  0  0  0  0  0  0  0  0  0  0  0
+          0  0  0  0  0  0  0  0  0  0  0  0  0  0  0  0  0
+          0  0  0  0  0  0  0  0  0  0  0  0  0  0  0  0  0
++         0  0  0  0  0  0  0  0  0  0  0  0  0  0  0  0  0
++         0  0  0  0  0  0  0  0  0  0  0  0  0  0  0  0  0
++         0  0  0  0  0  0  0  0  0  0  0  0  0  0  0  0  0
++         0  0  0  0  0  0  0  0  0  0  0  0  0  0  0  0  0
++         0  0  0  0  0  0  0  0  0  0  0  0  0  0  0  0  0
%c cc cc ccc ccc cccc cccc cccc cccc ccccc ccccc ccccc ccccc
%c cc cc ccc ccc cccc cccc cccc cccc ccccc ccccc ccccc ccccc
%f  0.0000000  0.000000000  0.00000000000  0.000000000000000
%f  0.0000000  0.000000000  0.00000000000  0.000000000000000
%i    0    0    0    0      0      0      0      0         0
%i    0    0    0    0      0      0      0      0         0
/*      NGA, ST. LOUIS,MO.                                  
/*   EPHEMERIS COMPUTED FROM  3 DAYS OF DATA                
/* CCCCCCCCCCCCCCCCCCCCCCCCCCCCCCCCCCCCCCCCCCCCCCCCCCCCCCCCC
/* CCCCCCCCCCCCCCCCCCCCCCCCCCCCCCCCCCCCCCCCCCCCCCCCCCCCCCCCC
*  2007  5 20 21 15   .00000000                                                 
P  1  -7318.611536 -13655.658172  21785.408720    129.083320                    
V  1  26928.105756  -2941.286295   7211.905532       .027800                    
P  2  12749.438578  22685.962616   5804.801393    108.037471                    
V  2  -7036.994594  -4108.466352  30105.145043       .028904                    
P  3 -12024.599632 -12730.749711 -20256.234326     60.294073                    
V  3  24328.585537  -7095.474288  -9749.593876       .055915                    
P  4   2198.738214  21236.151009  15503.578965     10.859974                    
V  4 -14161.650616 -14334.535418  21902.310768      -.002242                    
P  5  16331.101675  -2039.381695  20585.411608     -3.807307                    
V  5  -6779.930996  25930.816224   8010.793234      -.161665                    
P  6  25644.029260  -6509.838929  -2416.963599    189.342192                    
V  6   3905.458519   2985.175128  30902.577883       .131029                    
P  7  24101.819777  -9418.545770  -5791.218693    294.330550                    
V  7   8360.460543   1828.238712  29955.580591      -.172971                    
P  8  -7523.213729  14073.781672 -21262.343138   -107.959483                    
V  8 -16233.657304 -21306.699797  -8831.193758      -.011580                    
P  9  20483.556729  13420.832833   9963.706016     71.167007                    
V  9   6940.997594  11746.477528 -28188.419068       .016690                    
P 10   4147.455043  19957.080153 -16967.908284    102.162524                    
V 10 -10053.265643  19009.507023  20349.909829       .005712                    
P 11 -22718.048458  -9133.045140  10528.472104     16.417833                    
V 11  -7389.776440 -12084.288143 -25865.332598       .009115                    
P 12  15150.648146   2933.349815  21721.218645    -45.165777                    
V 12  -9773.894392  25520.756260   3446.420055      -.006313                    
P 13 -25159.966477   6400.595650  -5602.553096    174.164092                    
V 13  -7108.561781   -944.258658  31465.895308       .035001                    
P 14  10630.324784 -14385.764553  19686.459138     21.066849                    
V 14  24703.433467  -2140.434487 -15038.833315       .017432                    
P 16    527.446528 -23452.866823 -12222.357016    149.364975                    
V 16   8239.153552 -13588.397224  26392.193684       .029654                    
P 17 -13067.240191  14513.235150  17955.847626     67.529369                    
V 17 -22839.494703   1465.612916 -17947.027345      -.014657                    
P 18  16574.526136 -16855.536868 -11623.645513   -249.428619                    
V 18  -3542.766444  14967.049269 -26778.914866       .008627                    
P 19 -20433.776179  -8663.342147 -14573.331735     35.706559                    
V 19  18416.645087  -3594.445347 -23408.475418       .033584                    
P 20 -15571.318529  -1774.460101  21333.501267    -24.793165                    
V 20   9367.117946 -25725.839569   4708.906679      -.003608                    
P 21  14353.463091  -6692.802652 -21245.967918     77.080899                    
V 21  16094.629901  22036.871455   3333.108209       .004356                    
P 22  11458.591030 -23926.828245   -712.309275    182.925684                    
V 22   2436.378607   2303.469198 -31532.385506       .019252                    
P 23 -26153.754484    225.667811   5127.957586    167.773974                    
V 23   6180.907234  -3199.982476  30954.501733       .026841                    
P 24  19033.759215   5844.809129 -17228.672114      1.447718                    
V 24  11312.053115  19442.451801  19154.471083       .026914                    
P 25 -20475.631621  -5786.163637 -15431.538800    265.024840                    
V 25 -12451.412289 -16237.890286  22224.220921       .256642                    
P 26  18355.865902   9465.937376 -17462.271893   -204.960652                    
V 26 -20828.812813   2948.946040 -20272.735355      -.208032                    
P 27 -13925.291816   6374.565036 -21085.942362    111.876109                    
V 27 -18507.991643 -21359.970362   5368.114293       .021346                    
P 28 -12924.314845  22493.384062  -4419.084731       .707269                    
V 28   -452.443677  -6808.800066 -31323.039229      -.007558                    
P 29  14432.310849  10815.984258 -19423.002486      2.922351                    
V 29 -24545.195727   4351.867922 -15288.651499       .004303                    
P 30  16966.615912  -9249.622235  17862.743803     34.363269                    
V 30  -6000.491981  22695.152673  17271.835198       .010542                    
P 31  -3528.700136 -21531.448165  15293.680642     19.322765                    
V 31  13424.835073  13718.013549  22775.594240      -.005637                    
EOF
